ANGOSAT 2               
1 54033U 22131A   26193.49611345  .00000136  00000+0  00000+0 0  9996
2 54033   0.0192 113.9074 0000201 135.3318 242.7454  1.00270753 13738
EUTELSAT HOTBIRD 13F    
1 54048U 22134A   26194.13588723  .00000085  00000+0  00000+0 0  9993
2 54048   0.0558 285.3238 0001821  69.6444 357.9840  1.00272365 13632
LDPE-2                  
1 54219U 22144A   26194.24141998  .00000032  00000+0  00000+0 0  9997
2 54219   5.6736  63.4326 0002377 110.6563  71.4776  1.00543103 12108
EUTELSAT HOTBIRD 13G    
1 54225U 22146A   26194.17197611  .00000000  00000+0  00000+0 0  9996
2 54225   0.0125 236.5191 0002231 308.2946 181.1666  1.00271585  7729
ZHONGXING-19            
1 54230U 22148A   26194.33736620 -.00000085  00000+0  00000+0 0  9995
2 54230   0.0142 340.7979 0002936 158.5961  76.4551  1.00270517 13642
GALAXY 31 (G-31)        
1 54243U 22153A   26194.25191514  .00000011  00000+0  00000+0 0  9991
2 54243   0.0182  65.6448 0000950  53.7149 141.4445  1.00270644  7393
GALAXY 32 (G-32)        
1 54244U 22153B   26194.11523328 -.00000176  00000+0  00000+0 0  9992
2 54244   0.0124  24.1776 0001454  22.4936 194.8053  1.00270119 13404
EUTELSAT 10B            
1 54259U 22157A   26194.27782168  .00000065  00000+0  00000+0 0  9994
2 54259   0.0607  95.3404 0001607  16.8996 288.9209  1.00267622 13286
GALAXY 35 (G-35)        
1 54741U 22170A   26194.33531355  .00000000  00000+0  00000+0 0  9991
2 54741   0.0244  63.0238 0001904  53.9930 201.8076  1.00268735 13154
GALAXY 36 (G-36)        
1 54742U 22170B   26193.83039429 -.00000186  00000+0  00000+0 0  9997
2 54742   0.0298 108.9509 0002341 351.1655  40.5435  1.00270917 13036
METEOSAT-12 (MTG-I1)    
1 54743U 22170C   26194.27582833 -.00000011  00000+0  00000+0 0  9996
2 54743   0.7231  19.3648 0003764  82.4320 288.3622  1.00267241 13242
SHIJIAN-23 (SJ-23)      
1 55131U 23002A   26193.69987278 -.00000350  00000+0  00000+0 0  9996
2 55131   3.7803  77.9909 0003423 270.0048 325.4010  1.00077905 12762
APSTAR-6E               
1 55239U 23005A   26193.66084037 -.00000318  00000+0  00000+0 0  9990
2 55239   0.0619 237.7443 0001902 332.5772  92.1502  1.00269401 18947
USA 342                 
1 55263U 23008A   26190.28864118  .00000000  00000+0  00000+0 0  9998
2 55263   0.0052 352.2306 0000262   7.3445  55.4773  1.00269378 12734
LDPE-3A                 
1 55264U 23008B   26194.23339292 -.00000299  00000+0  00000+0 0  9999
2 55264   2.4133  81.3415 0001502  79.8138 359.6847  0.99150677 12079
ELEKTRO-L 4             
1 55506U 23016A   26193.73215672 -.00000058  00000+0  00000+0 0  9999
2 55506   0.1095 127.7772 0001261  49.1881 183.0251  1.00272446 12595
AMAZONAS NEXUS          
1 55508U 23017A   26194.31641906 -.00000285  00000+0  00000+0 0  9992
2 55508   0.0348  41.2428 0004364  43.9653 258.8950  1.00269197  7300
ZHONGXING-26            
1 55686U 23023A   26193.51648942 -.00000352  00000+0  00000+0 0  9999
2 55686   0.0650  71.3409 0003169  16.2999 153.8117  1.00290824 12489
LUCH-5X (OLYMP-K 2)     
1 55841U 23031A   26193.75808811  .00000034  00000+0  00000+0 0  9996
2 55841   0.0304  94.0667 0000862 154.5307  16.9318  1.00267834 12197
GAOFEN-13 02            
1 55912U 23036A   26194.20253001 -.00000221  00000+0  00000+0 0  9995
2 55912   1.0270   4.3077 0003715 335.9638 171.9324  1.00274628 12356
SES-18                  
1 55970U 23038A   26194.33947712 -.00000104  00000+0  00000+0 0  9994
2 55970   0.0576 259.4918 0000812 310.2700 100.5773  1.00271848 12364
SES-19                  
1 55971U 23038B   26193.96403530  .00000086  00000+0  00000+0 0  9996
2 55971   0.0165 326.4823 0001595 156.8223  19.7105  1.00273078 12358
INTELSAT 40E (IS-40E)   
1 56174U 23052A   26194.11523328  .00000000  00000+0  00000+0 0  9990
2 56174   0.0231  63.3228 0002219  82.0576  96.1141  1.00269641 12089
VIASAT-3 F1             
1 56370U 23060A   26193.61666089  .00000000  00000+0  00000+0 0  9993
2 56370   0.0161  22.0903 0001019  87.2892 314.1503  1.00270234 11686
ARCTURUS                
1 56371U 23060B   26194.11969412 -.00000330  00000+0  00000+0 0  9993
2 56371   2.8392  79.6196 0000878 132.4593 218.6143  1.00595546 11716
GS-1                    
1 56372U 23060C   26193.93708184 -.00000226  00000+0  00000+0 0  9994
2 56372   2.7898  79.5285 0003425 281.3475 356.6332  1.00267394  7792
BEIDOU-3 G4             
1 56564U 23066A   26194.30356179 -.00000283  00000+0  00000+0 0  9991
2 56564   0.4622 338.3610 0004870 187.9729  14.1847  1.00273065 11650
ARABSAT-7B (BADR-8)     
1 56757U 23075A   26194.06715740  .00000143  00000+0  00000+0 0  9995
2 56757   0.0751  31.4954 0003307 358.8618 310.7639  1.00271123 11371
NVS-01 (IRNSS-1J)       
1 56759U 23076A   26194.30148179 -.00000338  00000+0  00000+0 0  9998
2 56759   2.1065 243.1740 0003562   7.3847 278.6183  1.00265489 11376
NUSANTARA TIGA (SATRIA) 
1 57045U 23086A   26194.20461435 -.00000238  00000+0  00000+0 0  9999
2 57045   0.0349  11.4604 0002223 328.9769 170.3028  1.00267782 10025
H2SAT (HEINRICH HERTZ)  
1 57213U 23093A   26194.27600167 -.00000001  00000+0  00000+0 0  9996
2 57213   0.0190  97.6931 0000354  49.6189 243.8967  1.00269791 11178
